{
  "type": "FeatureCollection",
  "features": [
    {
      "type": "Feature",
      "properties": {
        "norad_id": 41330,
        "name": "COSMOS 2514 (751)",
        "group": "glo-ops",
        "lat": 0.6996108304766231,
        "lon": -40.42258675543157,
        "alt_km": 19153.963976327377,
        "timestamp": "2025-12-16T17:51:11.192429+00:00",
        "meta_object_name": "COSMOS 2514 (751)",
        "meta_object_id": "2016-008A",
        "meta_epoch": "2025-12-14T20:46:48.200160",
        "meta_mean_motion": 2.13102693,
        "meta_eccentricity": 0.00120161,
        "meta_inclination": 65.1326,
        "meta_ra_of_asc_node": 319.3311,
        "meta_arg_of_pericenter": 220.1002,
        "meta_mean_anomaly": 139.8075,
        "meta_ephemeris_type": 0,
        "meta_classification_type": "U",
        "meta_norad_cat_id": 41330,
        "meta_element_set_no": 999,
        "meta_rev_at_epoch": 7669,
        "meta_bstar": 0,
        "meta_mean_motion_dot": -6.7e-07,
        "meta_mean_motion_ddot": 0,
        "tle_line1": "1 41330U 16008A   25348.86583565 -.00000067  00000+0  00000+0 0  9996",
        "tle_line2": "2 41330  65.1326 319.3311 0012016 220.1002 139.8075  2.13102693 76692"
      },
      "geometry": {
        "type": "Point",
        "coordinates": [
          -40.42258675543157,
          0.6996108304766231
        ]
      }
    },
    {
      "type": "Feature",
      "properties": {
        "norad_id": 42939,
        "name": "COSMOS 2522 (752)",
        "group": "glo-ops",
        "lat": 47.68821648340343,
        "lon": -14.207739236088692,
        "alt_km": 19127.140035115182,
        "timestamp": "2025-12-16T17:51:11.192440+00:00",
        "meta_object_name": "COSMOS 2522 (752)",
        "meta_object_id": "2017-055A",
        "meta_epoch": "2025-12-15T04:09:48.799872",
        "meta_mean_motion": 2.13102036,
        "meta_eccentricity": 0.00063989,
        "meta_inclination": 64.076,
        "meta_ra_of_asc_node": 198.1461,
        "meta_arg_of_pericenter": 224.2568,
        "meta_mean_anomaly": 135.7703,
        "meta_ephemeris_type": 0,
        "meta_classification_type": "U",
        "meta_norad_cat_id": 42939,
        "meta_element_set_no": 999,
        "meta_rev_at_epoch": 6405,
        "meta_bstar": 0,
        "meta_mean_motion_dot": 1.03e-06,
        "meta_mean_motion_ddot": 0,
        "tle_line1": "1 42939U 17055A   25349.17348148  .00000103  00000+0  00000+0 0  9996",
        "tle_line2": "2 42939  64.0760 198.1461 0006398 224.2568 135.7703  2.13102036 64056"
      },
      "geometry": {
        "type": "Point",
        "coordinates": [
          -14.207739236088692,
          47.68821648340343
        ]
      }
    },
    {
      "type": "Feature",
      "properties": {
        "norad_id": 43508,
        "name": "COSMOS 2527 (756)",
        "group": "glo-ops",
        "lat": 22.86056177665489,
        "lon": -111.07470142600545,
        "alt_km": 19119.998514707357,
        "timestamp": "2025-12-16T17:51:11.192451+00:00",
        "meta_object_name": "COSMOS 2527 (756)",
        "meta_object_id": "2018-053A",
        "meta_epoch": "2025-12-13T17:26:08.291904",
        "meta_mean_motion": 2.13102046,
        "meta_eccentricity": 0.00086624,
        "meta_inclination": 65.4732,
        "meta_ra_of_asc_node": 80.0985,
        "meta_arg_of_pericenter": 225.2125,
        "meta_mean_anomaly": 134.7297,
        "meta_ephemeris_type": 0,
        "meta_classification_type": "U",
        "meta_norad_cat_id": 43508,
        "meta_element_set_no": 999,
        "meta_rev_at_epoch": 5832,
        "meta_bstar": 0,
        "meta_mean_motion_dot": -4.9e-07,
        "meta_mean_motion_ddot": 0,
        "tle_line1": "1 43508U 18053A   25347.72648486 -.00000049  00000+0  00000+0 0  9995",
        "tle_line2": "2 43508  65.4732  80.0985 0008662 225.2125 134.7297  2.13102046 58320"
      },
      "geometry": {
        "type": "Point",
        "coordinates": [
          -111.07470142600545,
          22.86056177665489
        ]
      }
    },
    {
      "type": "Feature",
      "properties": {
        "norad_id": 43687,
        "name": "COSMOS 2529 (757)",
        "group": "glo-ops",
        "lat": 62.53377466679403,
        "lon": -93.29028675348255,
        "alt_km": 19141.2798185317,
        "timestamp": "2025-12-16T17:51:11.192462+00:00",
        "meta_object_name": "COSMOS 2529 (757)",
        "meta_object_id": "2018-086A",
        "meta_epoch": "2025-12-14T07:02:10.344192",
        "meta_mean_motion": 2.13101932,
        "meta_eccentricity": 0.00071555,
        "meta_inclination": 64.2921,
        "meta_ra_of_asc_node": 198.8359,
        "meta_arg_of_pericenter": 254.022,
        "meta_mean_anomaly": 105.9754,
        "meta_ephemeris_type": 0,
        "meta_classification_type": "U",
        "meta_norad_cat_id": 43687,
        "meta_element_set_no": 999,
        "meta_rev_at_epoch": 5534,
        "meta_bstar": 0,
        "meta_mean_motion_dot": 9.3e-07,
        "meta_mean_motion_ddot": 0,
        "tle_line1": "1 43687U 18086A   25348.29317528  .00000093  00000+0  00000+0 0  9990",
        "tle_line2": "2 43687  64.2921 198.8359 0007155 254.0220 105.9754  2.13101932 55340"
      },
      "geometry": {
        "type": "Point",
        "coordinates": [
          -93.29028675348255,
          62.53377466679403
        ]
      }
    },
    {
      "type": "Feature",
      "properties": {
        "norad_id": 44299,
        "name": "COSMOS 2534 (758)",
        "group": "glo-ops",
        "lat": -30.614700406200438,
        "lon": 35.27075407061922,
        "alt_km": 19126.121311315816,
        "timestamp": "2025-12-16T17:51:11.192473+00:00",
        "meta_object_name": "COSMOS 2534 (758)",
        "meta_object_id": "2019-030A",
        "meta_epoch": "2025-12-15T05:49:22.027584",
        "meta_mean_motion": 2.13102219,
        "meta_eccentricity": 0.00088073,
        "meta_inclination": 64.3657,
        "meta_ra_of_asc_node": 198.8086,
        "meta_arg_of_pericenter": 283.8967,
        "meta_mean_anomaly": 218.9019,
        "meta_ephemeris_type": 0,
        "meta_classification_type": "U",
        "meta_norad_cat_id": 44299,
        "meta_element_set_no": 999,
        "meta_rev_at_epoch": 5100,
        "meta_bstar": 0,
        "meta_mean_motion_dot": 1.03e-06,
        "meta_mean_motion_ddot": 0,
        "tle_line1": "1 44299U 19030A   25349.24261606  .00000103  00000+0  00000+0 0  9993",
        "tle_line2": "2 44299  64.3657 198.8086 0008807 283.8967 218.9019  2.13102219 51004"
      },
      "geometry": {
        "type": "Point",
        "coordinates": [
          35.27075407061922,
          -30.614700406200438
        ]
      }
    },
    {
      "type": "Feature",
      "properties": {
        "norad_id": 44850,
        "name": "COSMOS 2544 (759)",
        "group": "glo-ops",
        "lat": -15.563444611631727,
        "lon": -92.87142644748747,
        "alt_km": 19110.706819339368,
        "timestamp": "2025-12-16T17:51:11.192485+00:00",
        "meta_object_name": "COSMOS 2544 (759)",
        "meta_object_id": "2019-088A",
        "meta_epoch": "2025-12-12T17:34:49.236384",
        "meta_mean_motion": 2.13101902,
        "meta_eccentricity": 0.001403,
        "meta_inclination": 65.4597,
        "meta_ra_of_asc_node": 79.9587,
        "meta_arg_of_pericenter": 249.9371,
        "meta_mean_anomaly": 109.9261,
        "meta_ephemeris_type": 0,
        "meta_classification_type": "U",
        "meta_norad_cat_id": 44850,
        "meta_element_set_no": 999,
        "meta_rev_at_epoch": 4674,
        "meta_bstar": 0,
        "meta_mean_motion_dot": -4.1e-07,
        "meta_mean_motion_ddot": 0,
        "tle_line1": "1 44850U 19088A   25346.73251431 -.00000041  00000+0  00000+0 0  9997",
        "tle_line2": "2 44850  65.4597  79.9587 0014030 249.9371 109.9261  2.13101902 46745"
      },
      "geometry": {
        "type": "Point",
        "coordinates": [
          -92.87142644748747,
          -15.563444611631727
        ]
      }
    },
    {
      "type": "Feature",
      "properties": {
        "norad_id": 45358,
        "name": "COSMOS 2545 (760)",
        "group": "glo-ops",
        "lat": 41.3900334350295,
        "lon": -16.278610782689288,
        "alt_km": 19152.766494167656,
        "timestamp": "2025-12-16T17:51:11.192496+00:00",
        "meta_object_name": "COSMOS 2545 (760)",
        "meta_object_id": "2020-018A",
        "meta_epoch": "2025-12-14T19:19:41.135808",
        "meta_mean_motion": 2.13102428,
        "meta_eccentricity": 0.00117069,
        "meta_inclination": 64.4681,
        "meta_ra_of_asc_node": 318.8965,
        "meta_arg_of_pericenter": 249.0608,
        "meta_mean_anomaly": 110.81,
        "meta_ephemeris_type": 0,
        "meta_classification_type": "U",
        "meta_norad_cat_id": 45358,
        "meta_element_set_no": 999,
        "meta_rev_at_epoch": 4473,
        "meta_bstar": 0,
        "meta_mean_motion_dot": -6.9e-07,
        "meta_mean_motion_ddot": 0,
        "tle_line1": "1 45358U 20018A   25348.80533722 -.00000069  00000+0  00000+0 0  9992",
        "tle_line2": "2 45358  64.4681 318.8965 0011706 249.0608 110.8100  2.13102428 44732"
      },
      "geometry": {
        "type": "Point",
        "coordinates": [
          -16.278610782689288,
          41.3900334350295
        ]
      }
    }
  ]
}